[{"OBJECT_NAME":"STARLINK-2315","OBJECT_ID":"2021-018C","EPOCH":"2026-03-09T18:16:43.104864","MEAN_MOTION":15.06403769,"ECCENTRICITY":0.00013144,"INCLINATION":53.0561,"RA_OF_ASC_NODE":231.2942,"ARG_OF_PERICENTER":123.9087,"MEAN_ANOMALY":236.2027,"EPHEMERIS_TYPE":0,"CLASSIFICATION_TYPE":"U","NORAD_CAT_ID":47789,"ELEMENT_SET_NO":999,"REV_AT_EPOCH":27689,"BSTAR":5.2453172e-5,"MEAN_MOTION_DOT":5.0e-6,"MEAN_MOTION_DDOT":0},{"OBJECT_NAME":"FENGYUN 1C DEB","OBJECT_ID":"1999-025DEQ","EPOCH":"2026-03-08T16:18:11.400768","MEAN_MOTION":15.03063896,"ECCENTRICITY":0.0041192,"INCLINATION":98.802,"RA_OF_ASC_NODE":149.1421,"ARG_OF_PERICENTER":81.4798,"MEAN_ANOMALY":279.1089,"EPHEMERIS_TYPE":0,"CLASSIFICATION_TYPE":"U","NORAD_CAT_ID":33655,"ELEMENT_SET_NO":999,"REV_AT_EPOCH":97846,"BSTAR":0.0032042236,"MEAN_MOTION_DOT":0.0004416,"MEAN_MOTION_DDOT":0}]
